STARLINK-4106           
1 53145U 22083P   25362.75730614 -.00000490  00000+0 -12687-4 0  9996
2 53145  53.2185 132.5485 0001453  89.2319 270.8840 15.08845641190514
STARLINK-4094           
1 53147U 22083R   25363.61474612  .00000538  00000+0  51868-4 0  9992
2 53147  53.2196 128.6864 0001536 104.2057 255.9106 15.08844902191298
STARLINK-4021           
1 53149U 22083T   25362.51633205  .00000169  00000+0  28718-4 0  9995
2 53149  53.2168 123.8317 0001289  86.5336 273.5804 15.08836258190617
STARLINK-4038           
1 53150U 22083U   25363.83335647  .00447329  00000+0  60207-2 0  9992
2 53150  53.2167 107.9759 0001271  50.8708 105.6794 15.55797186  5840
STARLINK-4040           
1 53151U 22083V   25363.32127025  .00000241  00000+0  33243-4 0  9996
2 53151  53.2182 120.0154 0001500  83.9632 276.1531 15.08839238190730
STARLINK-4045           
1 53152U 22083W   25363.52735448 -.00001730  00000+0 -90640-4 0  9993
2 53152  53.2194 119.0903 0000624  80.8107 279.2956 15.08841535190764
STARLINK-4098           
1 53153U 22083X   25363.64879053  .00000845  00000+0  71157-4 0  9994
2 53153  53.2180 118.5450 0001268  82.9045 277.2092 15.08839561190787
STARLINK-4077           
1 53154U 22083Y   25363.58991201  .00000878  00000+0  73230-4 0  9998
2 53154  53.2197 118.8074 0001400  72.3951 287.7194 15.08840128190777
STARLINK-4088           
1 53155U 22083Z   25363.64143277  .00000564  00000+0  53522-4 0  9992
2 53155  53.2181 118.5810 0000989  94.9494 265.1611 15.08836303191426
STARLINK-4087           
1 53156U 22083AA  25363.49789682  .00002467  00000+0  17306-3 0  9995
2 53156  53.2172 119.1003 0000876  90.7207 269.3885 15.08826535190760
STARLINK-4054           
1 53158U 22083AC  25363.51262682  .00000063  00000+0  22038-4 0  9995
2 53158  53.2177 119.1589 0001250  98.6935 261.4199 15.08841594190761
STARLINK-4111           
1 53159U 22083AD  25363.56047356 -.00000635  00000+0 -21819-4 0  9993
2 53159  53.2171 118.9455 0001295  92.8404 267.2737 15.08832740190777
STARLINK-4096           
1 53160U 22083AE  25363.63772729  .00006227  00000+0  40855-3 0  9993
2 53160  53.2173 118.5943 0001272  57.0293 303.0821 15.08876925190780
STARLINK-4055           
1 53161U 22083AF  25363.61567080  .00000306  00000+0  37276-4 0  9990
2 53161  53.2183 118.6901 0001250 119.8241 240.2875 15.08847842190780
STARLINK-4114           
1 53162U 22083AG  25362.57152257  .00001145  00000+0  89997-4 0  9990
2 53162  53.2182 123.3959 0001787  62.1388 297.9785 15.08847491190625
STARLINK-4104           
1 53163U 22083AH  25363.49056989 -.00000686  00000+0 -25016-4 0  9991
2 53163  53.2175 119.3977 0001314 105.1578 254.9560 15.08835366190765
STARLINK-4116           
1 53164U 22083AJ  25363.61935451 -.00000718  00000+0 -27031-4 0  9991
2 53164  53.2187 118.6764 0001270  89.8756 270.2381 15.08833870190784
