[{"OBJECT_NAME":"STARLINK-4106","OBJECT_ID":"2022-083P","EPOCH":"2025-12-28T18:10:31.250496","MEAN_MOTION":15.08845641,"ECCENTRICITY":0.00014539,"INCLINATION":53.2185,"RA_OF_ASC_NODE":132.5485,"ARG_OF_PERICENTER":89.2319,"MEAN_ANOMALY":270.884,"EPHEMERIS_TYPE":0,"CLASSIFICATION_TYPE":"U","NORAD_CAT_ID":53145,"ELEMENT_SET_NO":999,"REV_AT_EPOCH":19051,"BSTAR":-1.2686888e-5,"MEAN_MOTION_DOT":-4.9e-6,"MEAN_MOTION_DDOT":0},{"OBJECT_NAME":"STARLINK-4094","OBJECT_ID":"2022-083R","EPOCH":"2025-12-29T14:45:14.064768","MEAN_MOTION":15.08844902,"ECCENTRICITY":0.0001536,"INCLINATION":53.2196,"RA_OF_ASC_NODE":128.6864,"ARG_OF_PERICENTER":104.2057,"MEAN_ANOMALY":255.9106,"EPHEMERIS_TYPE":0,"CLASSIFICATION_TYPE":"U","NORAD_CAT_ID":53147,"ELEMENT_SET_NO":999,"REV_AT_EPOCH":19129,"BSTAR":5.1868e-5,"MEAN_MOTION_DOT":5.38e-6,"MEAN_MOTION_DDOT":0},{"OBJECT_NAME":"STARLINK-4021","OBJECT_ID":"2022-083T","EPOCH":"2025-12-28T12:23:31.089120","MEAN_MOTION":15.08836258,"ECCENTRICITY":0.00012896,"INCLINATION":53.2168,"RA_OF_ASC_NODE":123.8317,"ARG_OF_PERICENTER":86.5336,"MEAN_ANOMALY":273.5804,"EPHEMERIS_TYPE":0,"CLASSIFICATION_TYPE":"U","NORAD_CAT_ID":53149,"ELEMENT_SET_NO":999,"REV_AT_EPOCH":19061,"BSTAR":2.8718321e-5,"MEAN_MOTION_DOT":1.69e-6,"MEAN_MOTION_DDOT":0},{"OBJECT_NAME":"STARLINK-4038","OBJECT_ID":"2022-083U","EPOCH":"2025-12-29T20:00:01.999008","MEAN_MOTION":15.55797186,"ECCENTRICITY":0.0001271,"INCLINATION":53.2167,"RA_OF_ASC_NODE":107.9759,"ARG_OF_PERICENTER":50.8708,"MEAN_ANOMALY":105.6794,"EPHEMERIS_TYPE":0,"CLASSIFICATION_TYPE":"U","NORAD_CAT_ID":53150,"ELEMENT_SET_NO":999,"REV_AT_EPOCH":584,"BSTAR":0.0060207,"MEAN_MOTION_DOT":0.00447329,"MEAN_MOTION_DDOT":0},{"OBJECT_NAME":"STARLINK-4040","OBJECT_ID":"2022-083V","EPOCH":"2025-12-29T07:42:37.749600","MEAN_MOTION":15.08839238,"ECCENTRICITY":0.00015,"INCLINATION":53.2182,"RA_OF_ASC_NODE":120.0154,"ARG_OF_PERICENTER":83.9632,"MEAN_ANOMALY":276.1531,"EPHEMERIS_TYPE":0,"CLASSIFICATION_TYPE":"U","NORAD_CAT_ID":53151,"ELEMENT_SET_NO":999,"REV_AT_EPOCH":19073,"BSTAR":3.3243e-5,"MEAN_MOTION_DOT":2.41e-6,"MEAN_MOTION_DDOT":0},{"OBJECT_NAME":"STARLINK-4045","OBJECT_ID":"2022-083W","EPOCH":"2025-12-29T12:39:23.427072","MEAN_MOTION":15.08841535,"ECCENTRICITY":6.248e-5,"INCLINATION":53.2194,"RA_OF_ASC_NODE":119.0903,"ARG_OF_PERICENTER":80.8107,"MEAN_ANOMALY":279.2956,"EPHEMERIS_TYPE":0,"CLASSIFICATION_TYPE":"U","NORAD_CAT_ID":53152,"ELEMENT_SET_NO":999,"REV_AT_EPOCH":19076,"BSTAR":-9.0640492e-5,"MEAN_MOTION_DOT":-1.73e-5,"MEAN_MOTION_DDOT":0},{"OBJECT_NAME":"STARLINK-4098","OBJECT_ID":"2022-083X","EPOCH":"2025-12-29T15:34:15.501792","MEAN_MOTION":15.08839561,"ECCENTRICITY":0.0001268,"INCLINATION":53.218,"RA_OF_ASC_NODE":118.545,"ARG_OF_PERICENTER":82.9045,"MEAN_ANOMALY":277.2092,"EPHEMERIS_TYPE":0,"CLASSIFICATION_TYPE":"U","NORAD_CAT_ID":53153,"ELEMENT_SET_NO":999,"REV_AT_EPOCH":19078,"BSTAR":7.1157e-5,"MEAN_MOTION_DOT":8.45e-6,"MEAN_MOTION_DDOT":0},{"OBJECT_NAME":"STARLINK-4077","OBJECT_ID":"2022-083Y","EPOCH":"2025-12-29T14:09:28.397664","MEAN_MOTION":15.08840128,"ECCENTRICITY":0.00014,"INCLINATION":53.2197,"RA_OF_ASC_NODE":118.8074,"ARG_OF_PERICENTER":72.3951,"MEAN_ANOMALY":287.7194,"EPHEMERIS_TYPE":0,"CLASSIFICATION_TYPE":"U","NORAD_CAT_ID":53154,"ELEMENT_SET_NO":999,"REV_AT_EPOCH":19077,"BSTAR":7.323e-5,"MEAN_MOTION_DOT":8.78e-6,"MEAN_MOTION_DDOT":0},{"OBJECT_NAME":"STARLINK-4088","OBJECT_ID":"2022-083Z","EPOCH":"2025-12-29T15:23:39.791328","MEAN_MOTION":15.08836303,"ECCENTRICITY":9.89e-5,"INCLINATION":53.2181,"RA_OF_ASC_NODE":118.581,"ARG_OF_PERICENTER":94.9494,"MEAN_ANOMALY":265.1611,"EPHEMERIS_TYPE":0,"CLASSIFICATION_TYPE":"U","NORAD_CAT_ID":53155,"ELEMENT_SET_NO":999,"REV_AT_EPOCH":19142,"BSTAR":5.3522e-5,"MEAN_MOTION_DOT":5.64e-6,"MEAN_MOTION_DDOT":0},{"OBJECT_NAME":"STARLINK-4087","OBJECT_ID":"2022-083AA","EPOCH":"2025-12-29T11:56:58.285248","MEAN_MOTION":15.08826535,"ECCENTRICITY":8.76e-5,"INCLINATION":53.2172,"RA_OF_ASC_NODE":119.1003,"ARG_OF_PERICENTER":90.7207,"MEAN_ANOMALY":269.3885,"EPHEMERIS_TYPE":0,"CLASSIFICATION_TYPE":"U","NORAD_CAT_ID":53156,"ELEMENT_SET_NO":999,"REV_AT_EPOCH":19076,"BSTAR":0.00017306,"MEAN_MOTION_DOT":2.467e-5,"MEAN_MOTION_DDOT":0},{"OBJECT_NAME":"STARLINK-4054","OBJECT_ID":"2022-083AC","EPOCH":"2025-12-29T12:18:10.957248","MEAN_MOTION":15.08841594,"ECCENTRICITY":0.00012505,"INCLINATION":53.2177,"RA_OF_ASC_NODE":119.1589,"ARG_OF_PERICENTER":98.6935,"MEAN_ANOMALY":261.4199,"EPHEMERIS_TYPE":0,"CLASSIFICATION_TYPE":"U","NORAD_CAT_ID":53158,"ELEMENT_SET_NO":999,"REV_AT_EPOCH":19076,"BSTAR":2.2038259e-5,"MEAN_MOTION_DOT":6.3e-7,"MEAN_MOTION_DDOT":0},{"OBJECT_NAME":"STARLINK-4111","OBJECT_ID":"2022-083AD","EPOCH":"2025-12-29T13:27:04.915584","MEAN_MOTION":15.0883274,"ECCENTRICITY":0.0001295,"INCLINATION":53.2171,"RA_OF_ASC_NODE":118.9455,"ARG_OF_PERICENTER":92.8404,"MEAN_ANOMALY":267.2737,"EPHEMERIS_TYPE":0,"CLASSIFICATION_TYPE":"U","NORAD_CAT_ID":53159,"ELEMENT_SET_NO":999,"REV_AT_EPOCH":19077,"BSTAR":-2.1819e-5,"MEAN_MOTION_DOT":-6.35e-6,"MEAN_MOTION_DDOT":0},{"OBJECT_NAME":"STARLINK-4096","OBJECT_ID":"2022-083AE","EPOCH":"2025-12-29T15:18:19.637856","MEAN_MOTION":15.08876925,"ECCENTRICITY":0.0001272,"INCLINATION":53.2173,"RA_OF_ASC_NODE":118.5943,"ARG_OF_PERICENTER":57.0293,"MEAN_ANOMALY":303.0821,"EPHEMERIS_TYPE":0,"CLASSIFICATION_TYPE":"U","NORAD_CAT_ID":53160,"ELEMENT_SET_NO":999,"REV_AT_EPOCH":19078,"BSTAR":0.00040855,"MEAN_MOTION_DOT":6.227e-5,"MEAN_MOTION_DDOT":0},{"OBJECT_NAME":"STARLINK-4055","OBJECT_ID":"2022-083AF","EPOCH":"2025-12-29T14:46:33.957120","MEAN_MOTION":15.08847842,"ECCENTRICITY":0.000125,"INCLINATION":53.2183,"RA_OF_ASC_NODE":118.6901,"ARG_OF_PERICENTER":119.8241,"MEAN_ANOMALY":240.2875,"EPHEMERIS_TYPE":0,"CLASSIFICATION_TYPE":"U","NORAD_CAT_ID":53161,"ELEMENT_SET_NO":999,"REV_AT_EPOCH":19078,"BSTAR":3.7276e-5,"MEAN_MOTION_DOT":3.06e-6,"MEAN_MOTION_DDOT":0},{"OBJECT_NAME":"STARLINK-4114","OBJECT_ID":"2022-083AG","EPOCH":"2025-12-28T13:42:59.550048","MEAN_MOTION":15.08847491,"ECCENTRICITY":0.0001787,"INCLINATION":53.2182,"RA_OF_ASC_NODE":123.3959,"ARG_OF_PERICENTER":62.1388,"MEAN_ANOMALY":297.9785,"EPHEMERIS_TYPE":0,"CLASSIFICATION_TYPE":"U","NORAD_CAT_ID":53162,"ELEMENT_SET_NO":999,"REV_AT_EPOCH":19062,"BSTAR":8.9997e-5,"MEAN_MOTION_DOT":1.145e-5,"MEAN_MOTION_DDOT":0},{"OBJECT_NAME":"STARLINK-4104","OBJECT_ID":"2022-083AH","EPOCH":"2025-12-29T11:46:25.238496","MEAN_MOTION":15.08835366,"ECCENTRICITY":0.00013145,"INCLINATION":53.2175,"RA_OF_ASC_NODE":119.3977,"ARG_OF_PERICENTER":105.1578,"MEAN_ANOMALY":254.956,"EPHEMERIS_TYPE":0,"CLASSIFICATION_TYPE":"U","NORAD_CAT_ID":53163,"ELEMENT_SET_NO":999,"REV_AT_EPOCH":19076,"BSTAR":-2.5016222e-5,"MEAN_MOTION_DOT":-6.86e-6,"MEAN_MOTION_DDOT":0},{"OBJECT_NAME":"STARLINK-4116","OBJECT_ID":"2022-083AJ","EPOCH":"2025-12-29T14:51:52.229664","MEAN_MOTION":15.0883387,"ECCENTRICITY":0.000127,"INCLINATION":53.2187,"RA_OF_ASC_NODE":118.6764,"ARG_OF_PERICENTER":89.8756,"MEAN_ANOMALY":270.2381,"EPHEMERIS_TYPE":0,"CLASSIFICATION_TYPE":"U","NORAD_CAT_ID":53164,"ELEMENT_SET_NO":999,"REV_AT_EPOCH":19078,"BSTAR":-2.7031e-5,"MEAN_MOTION_DOT":-7.18e-6,"MEAN_MOTION_DDOT":0}]
